GLOBALSTAR M023         
1 25621U 99004A   25239.92605722 -.00000057  00000+0  25838-3 0  9993
2 25621  52.0090 194.9938 0010039 286.5282 137.4422 12.62502756224796
GLOBALSTAR M040         
1 25622U 99004B   25239.92312259 -.00000074  00000+0  16489-3 0  9995
2 25622  51.9901 199.2642 0000577 174.4651 221.3659 12.62015782224318
GLOBALSTAR M036         
1 25623U 99004C   25239.80009932 -.00000050  00000+0  47593-3 0  9998
2 25623  51.9974  51.5621 0010801 183.9298 190.0893 11.86607300187485
GLOBALSTAR M038         
1 25624U 99004D   25239.93799991 -.00000074  00000+0  17153-3 0  9999
2 25624  51.9947 224.9374 0001665 202.9654 179.9828 12.32531244211222
GLOBALSTAR M022         
1 25649U 99012A   25239.88060891 -.00000086  00000+0  72472-5 0  9999
2 25649  52.0035  96.0053 0002419 333.8758  39.4886 12.02502511185000
GLOBALSTAR M041         
1 25650U 99012B   25239.63344230 -.00000043  00000+0  53968-3 0  9996
2 25650  52.0052 340.3101 0002031 102.0620 258.0444 11.96683312186836
GLOBALSTAR M046         
1 25651U 99012C   25239.85474721 -.00000080  00000+0  92680-4 0  9996
2 25651  52.0063  43.5920 0002672  52.5542  99.3535 12.09410365192333
GLOBALSTAR M037         
1 25652U 99012D   25239.50106009 -.00000136  00000+0 -17701-3 0  9993
2 25652  52.0030 326.8839 0001712 359.9000  13.7286 12.62449390220289
